FLOCK 4G-6              
1 62660U 25009BD  26068.71061311  .00012261  00000+0  45910-3 0  9991
2 62660  97.3980 150.7943 0002380 348.2637  11.8546 15.27432125121307
STARLINK-36491          
1 67310U 26002F   26068.41139569  .00036259  00000+0  13209-2 0  9998
2 67310  42.9986 327.0738 0000871 293.9066  66.1694 15.27574029 11037
